[
    {
        "Altitude(m)": 562519.2840643505,
        "Argument of Periapsis(deg)": 0.033114955553567506,
        "Eccentricity": 0.0,
        "Inclination(deg)": 53.0,
        "Latitude(deg)": -30.087556046917904,
        "Longitude(deg)": 115.27686670098797,
        "Mean Anomaly(deg)": -38.63283566211203,
        "RAAN(deg)": 244.95071684264008,
        "Satellite Name": "Starlink Shell 1 1094",
        "Satellite Number": 1094,
        "Semi-Major Axis(m)": 6931778.249405717,
        "Time(s)": 950
    },
    {
        "Altitude(m)": 562344.1173631136,
        "Argument of Periapsis(deg)": 0.03346353403307874,
        "Eccentricity": 0.0,
        "Inclination(deg)": 53.0,
        "Latitude(deg)": -29.63457650626497,
        "Longitude(deg)": 115.73460942264612,
        "Mean Anomaly(deg)": -38.00600445855538,
        "RAAN(deg)": 244.95019807256264,
        "Satellite Name": "Starlink Shell 1 1094",
        "Satellite Number": 1094,
        "Semi-Major Axis(m)": 6931778.249405717,
        "Time(s)": 960
    },
    {
        "Altitude(m)": 562169.1676962599,
        "Argument of Periapsis(deg)": 0.03381211251258998,
        "Eccentricity": 0.0,
        "Inclination(deg)": 53.0,
        "Latitude(deg)": -29.17969172079852,
        "Longitude(deg)": 116.18791534783745,
        "Mean Anomaly(deg)": -37.379173254998605,
        "RAAN(deg)": 244.94967930248518,
        "Satellite Name": "Starlink Shell 1 1094",
        "Satellite Number": 1094,
        "Semi-Major Axis(m)": 6931778.249405717,
        "Time(s)": 970
    },
    {
        "Altitude(m)": 561994.5003463848,
        "Argument of Periapsis(deg)": 0.034160690992101214,
        "Eccentricity": 0.0,
        "Inclination(deg)": 53.0,
        "Latitude(deg)": -28.72295173521774,
        "Longitude(deg)": 116.6368869289033,
        "Mean Anomaly(deg)": -36.752342051441836,
        "RAAN(deg)": 244.9491605324077,
        "Satellite Name": "Starlink Shell 1 1094",
        "Satellite Number": 1094,
        "Semi-Major Axis(m)": 6931778.249405717,
        "Time(s)": 980
    },
    {
        "Altitude(m)": 561820.1803235782,
        "Argument of Periapsis(deg)": 0.034509269471612446,
        "Eccentricity": 0.0,
        "Inclination(deg)": 53.0,
        "Latitude(deg)": -28.26440550060684,
        "Longitude(deg)": 117.08162583166015,
        "Mean Anomaly(deg)": -36.12551084788522,
        "RAAN(deg)": 244.94864176233023,
        "Satellite Name": "Starlink Shell 1 1094",
        "Satellite Number": 1094,
        "Semi-Major Axis(m)": 6931778.249405717,
        "Time(s)": 990
    }
]